STARLINK-35200          
1 65855C 25223B   26113.85812500  .00025708  00000+0  86582-3 0  1136
2 65855  53.1573  84.4106 0001638  95.0618 154.7918 15.30201870    18
STARLINK-35459          
1 65856C 25223C   26113.88659722  .00030697  00000+0  10344-2 0  1130
2 65856  53.1588  84.4420 0001534  91.1968 234.2035 15.30181457    16
STARLINK-35489          
1 65857C 25223D   26113.83729167  .00045751  00000+0  15421-2 0  1135
2 65857  53.1603  84.8159 0001367  95.4804 242.5533 15.30166747    18
STARLINK-35199          
1 65858C 25223E   26113.85534722  .00041830  00000+0  14100-2 0  1136
2 65858  53.1583  84.2635 0001466  89.1845 226.8487 15.30166862    15
STARLINK-35408          
1 65859C 25223F   26113.86090278  .00032545  00000+0  10969-2 0  1133
2 65859  53.1603  84.6973 0001356  94.6405  19.3424 15.30173781    13
STARLINK-35303          
1 65860C 25223G   26113.88104167  .00038801  00000+0  13075-2 0  1132
2 65860  53.1578  84.3966 0001310 100.8370 228.8424 15.30177917    18
STARLINK-35258          
1 65861C 25223H   26113.90673611  .00026967  00000+0  90864-3 0  1133
2 65861  53.1586  84.3206 0001472  95.7938 352.2320 15.30186398    16
STARLINK-35386          
1 65862C 25223J   26113.84979167  .00040987  00000+0  13815-2 0  1130
2 65862  53.1603  84.7354 0001378  97.6310 320.9297 15.30169516    13
STARLINK-35469          
1 65863C 25223K   26113.88173611  .00030916  00000+0  10419-2 0  1133
2 65863  53.1597  84.5318 0001365  93.7452 169.9649 15.30178143    12
STARLINK-35471          
1 65864C 25223L   26113.88659722  .00023820  00000+0  80272-3 0  1137
2 65864  53.1591  84.0358 0001454  94.9554  74.0264 15.30183831    10
STARLINK-35475          
1 65865C 25223M   26113.90881944  .00031148  00000+0  10497-2 0  1137
2 65865  53.1606  83.8169 0001310  95.5455 254.0871 15.30179879    14
STARLINK-35312          
1 65866C 25223N   26113.85881944  .00025502  00000+0  85949-3 0  1134
2 65866  53.1594  84.6107 0001418  97.0513  51.9843 15.30179418    15
STARLINK-35456          
1 65867C 25223P   26113.91368056  .00020903  00000+0  70442-3 0  1138
2 65867  53.1581  83.9989 0001344  92.3950 179.3367 15.30185665    10
STARLINK-35450          
1 65868C 25223Q   26113.88243056  .00038460  00000+0  12960-2 0  1134
2 65868  53.1585  84.4246 0001375  98.0404 221.8408 15.30177701    19
STARLINK-35441          
1 65869C 25223R   26113.87826389  .00034919  00000+0  11767-2 0  1139
2 65869  53.1593  84.5121 0001357  95.7785 166.2406 15.30178681    16
STARLINK-35433          
1 65870C 25223S   26113.87826389  .00034698  00000+0  11695-2 0  1135
2 65870  53.1585  84.1202 0001459  91.7948   7.9990 15.30173109    14
STARLINK-35465          
1 65871C 25223T   26113.89076389  .00028902  00000+0  97406-3 0  1131
2 65871  53.1576  84.2001 0001298  98.5210   0.3708 15.30178537    15
STARLINK-34108          
1 65872C 25223U   26113.86437500  .00044308  00000+0  14930-2 0  1133
2 65872  53.1587  84.1719 0001379  96.1922 292.8531 15.30176208    12
STARLINK-35423          
1 65873C 25223V   26113.83312500  .00041842  00000+0  14104-2 0  1136
2 65873  53.1599  84.2014 0001354  94.3938 180.5894 15.30167866    10
STARLINK-35425          
1 65874C 25223W   26113.85326389  .00040899  00000+0  13770-2 0  1138
2 65874  53.1578  84.5116 0001485 103.6032  78.7216 15.30204621    15
STARLINK-34688          
1 65875C 25223X   26113.87895833  .00032028  00000+0  10794-2 0  1134
2 65875  53.1607  84.6532 0001363  95.4630  94.7712 15.30178309    11
STARLINK-34438          
1 65876C 25223Y   26113.84076389  .00033584  00000+0  11319-2 0  1131
2 65876  53.1587  84.6579 0001368  94.0070 332.9641 15.30174539    17
STARLINK-35462          
1 65877C 25223Z   26113.87756944  .00029323  00000+0  98813-3 0  1138
2 65877  53.1599  84.0154 0001379  91.9265  56.3854 15.30182521    11
STARLINK-35453          
1 65878C 25223AA  26113.90881944  .00027959  00000+0  94227-3 0  1130
2 65878  53.1599  84.4112 0001465  97.8778 309.2949 15.30179433    13
STARLINK-35418          
1 65879C 25223AB  26113.84284722  .00024819  00000+0  83704-3 0  1135
2 65879  53.1605  84.8063 0001420  96.5839 260.4395 15.30158283    19
STARLINK-35445          
1 65880C 25223AC  26113.89493056  .00031853  00000+0  10735-2 0  1133
2 65880  53.1581  84.3378 0001359  98.1067 302.3126 15.30178745    13
STARLINK-35464          
1 65881C 25223AD  26113.85951389  .00032795  00000+0  11053-2 0  1138
2 65881  53.1602  84.6599 0001369  95.5854  28.2016 15.30175271    15
STARLINK-35270          
1 65882C 25224A   26113.85812500  .02719500  00000+0  88011-1 0  1136
2 65882  53.1583 161.5658 0000672  85.6483 128.1707 15.30147580    18
STARLINK-35367          
1 65883C 25224B   26113.85256944  .01868800  00000+0  62160-1 0  1135
2 65883  53.1587 161.4521 0001248  75.2970 177.7497 15.29688202    12
STARLINK-35384          
1 65884C 25224C   26113.91645833 -.00006119  00000+0 -20624-3 0  1131
2 65884  53.1567 161.3627 0001008  89.5677  50.8574 15.30193422    17
STARLINK-35415          
1 65885C 25224D   26113.89493056  .01078700  00000+0  36138-1 0  1136
2 65885  53.1588 161.1849 0000501  56.9576 104.4800 15.29848112    17
STARLINK-35413          
1 65886C 25224E   26113.90118056 -.00018028  00000+0 -60768-3 0  1139
2 65886  53.1589 161.1094 0001417  75.2556 143.8322 15.30196796    12
STARLINK-35332          
1 65887C 25224F   26113.85951389 -.00038400  00000+0 -12943-2 0  1135
2 65887  53.1591 161.1997 0001442  76.4357 325.3363 15.30209502    10
STARLINK-35362          
1 65888C 25224G   26113.87548611 -.00022279  00000+0 -75090-3 0  1138
2 65888  53.1571 161.6349 0001150  89.0018 144.8782 15.30202064    10
STARLINK-35193          
1 65889C 25224H   26113.90326389  .00009183  00000+0  30952-3 0  1134
2 65889  53.1579 161.5989 0001153  87.2040 247.4461 15.30184968    12
STARLINK-34542          
1 65890C 25224J   26113.89631944 -.00026220  00000+0 -88377-3 0  1137
2 65890  53.1578 161.6067 0001277  76.3645 237.4521 15.30202854    19
STARLINK-34791          
1 65891C 25224K   26113.91576389 -.00007664  00000+0 -25828-3 0  1135
2 65891  53.1590 161.6106 0001292  84.7735 283.8721 15.30196077    14
STARLINK-34853          
1 65892C 25224L   26113.89076389  .00003637  00000+0  12251-3 0  1138
2 65892  53.1575 161.3438 0001164  88.1010 340.5762 15.30210811    14
STARLINK-34921          
1 65893C 25224M   26113.89215278 -.00017284  00000+0 -58254-3 0  1139
2 65893  53.1574 161.5814 0001235  88.3688 219.9340 15.30199998    19
STARLINK-34672          
1 65894C 25224N   26113.86368056 -.00034729  00000+0 -11706-2 0  1133
2 65894  53.1569 161.6335 0001036  91.2119 100.8750 15.30206299    10
STARLINK-34898          
1 65895C 25224P   26113.82965278 -.00035624  00000+0 -12007-2 0  1139
2 65895  53.1573 161.6525 0001185  86.3969 347.9330 15.30207667    18
STARLINK-34906          
1 65896C 25224Q   26113.91784722  .00024080  00000+0  81126-3 0  1134
2 65896  53.1568 161.3116 0000987  87.4161  78.0739 15.30192358    16
STARLINK-34934          
1 65897C 25224R   26113.83798611 -.00045864  00000+0 -15458-2 0  1137
2 65897  53.1586 161.4733 0001296  85.3573 104.6996 15.30214833    15
STARLINK-34936          
1 65898C 25224S   26113.85812500 -.00043134  00000+0 -14539-2 0  1131
2 65898  53.1582 161.4497 0001196  82.7053 183.4601 15.30210661    15
STARLINK-35272          
1 65899C 25224T   26113.87548611  .01500200  00000+0  50068-1 0  1130
2 65899  53.1589 161.1830 0000882  89.0601   5.9312 15.29762186    10
STARLINK-35264          
1 65900C 25224U   26113.88381944 -.00029538  00000+0 -99560-3 0  1131
2 65900  53.1588 161.1102 0001199  88.8901  69.4132 15.30204088    15
STARLINK-35249          
1 65901C 25224V   26113.88381944  .00001744  00000+0  58742-4 0  1137
2 65901  53.1570 161.5602 0001251  93.3116 198.1573 15.30210150    10
STARLINK-35278          
1 65902C 25224W   26113.85604167 -.00029211  00000+0 -98444-3 0  1133
2 65902  53.1580 161.8038 0001335  86.0032 354.1788 15.30208361    10
STARLINK-35210          
1 65903C 25224X   26113.84493056 -.00049063  00000+0 -16537-2 0  1135
2 65903  53.1589 161.9588 0001213  86.0649 240.5263 15.30214845    10
STARLINK-35348          
1 65904C 25224Y   26113.90743056  .00504550  00000+0  16965-1 0  1130
2 65904  53.1589 161.0917 0001095  72.5869 169.3622 15.30016049    13
STARLINK-35380          
1 65905C 25224Z   26113.88798611 -.00063891  00000+0 -21533-2 0  1133
2 65905  53.1569 161.4359 0001061  94.1602 272.6432 15.30224502    16
STARLINK-35385          
1 65906C 25224AA  26113.89006944  .01833300  00000+0  60996-1 0  1130
2 65906  53.1587 161.2871 0001201 106.2118 341.9303 15.29696614    19
STARLINK-35347          
1 65907C 25224AB  26113.87965278 -.00016079  00000+0 -54191-3 0  1132
2 65907  53.1587 161.2656 0001223  87.5436 337.9915 15.30200838    14
STARLINK-35329          
1 65908C 25224AC  26113.87479167 -.00003882  00000+0 -13088-3 0  1138
2 65908  53.1574 161.4283 0001032  95.3725 233.4645 15.30186717    14
STARLINK-35387          
1 65909C 25224AD  26113.90395833 -.00011147  00000+0 -37571-3 0  1136
2 65909  53.1587 161.6373 0001357  76.6245 238.5882 15.30196532    15
STARLINK-35523          
1 65910C 25225A   26113.84770833 -.00038565  00000+0 -12999-2 0  1138
2 65910  53.1598 316.0693 0001336  87.5427 141.7001 15.30206939    11
STARLINK-35160          
1 65911C 25225B   26113.89284722 -.00046727  00000+0 -15754-2 0  1132
2 65911  53.1608 315.9980 0001385  80.7456 327.5006 15.30203616    10
STARLINK-35508          
1 65912C 25225C   26113.86854167 -.00033805  00000+0 -11395-2 0  1136
2 65912  53.1601 316.0072 0001356  85.7375 240.8854 15.30205369    16
STARLINK-35472          
1 65913C 25225D   26113.84076389 -.00013189  00000+0 -44459-3 0  1138
2 65913  53.1595 316.0665 0001305  79.0492 129.3656 15.30193583    12
